{
    "links": {
        "self": "http://www.neowsapp.com/rest/v1/neo/3597508?api_key=iIulBulltgU6a56xZRHN4H3l9WmuAYTsLGpBGhQ2"
    },
    "id": "3597508",
    "neo_reference_id": "3597508",
    "name": "(2012 CM2)",
    "designation": "2012 CM2",
    "nasa_jpl_url": "http://ssd.jpl.nasa.gov/sbdb.cgi?sstr=3597508",
    "absolute_magnitude_h": 24.8,
    "estimated_diameter": {
        "kilometers": {
            "estimated_diameter_min": 0.0291443905,
            "estimated_diameter_max": 0.0651688382
        },
        "meters": {
            "estimated_diameter_min": 29.1443904535,
            "estimated_diameter_max": 65.1688382168
        },
        "miles": {
            "estimated_diameter_min": 0.018109479,
            "estimated_diameter_max": 0.0404940262
        },
        "feet": {
            "estimated_diameter_min": 95.6180819754,
            "estimated_diameter_max": 213.8085311752
        }
    },
    "is_potentially_hazardous_asteroid": false,
    "close_approach_data": [
        {
            "close_approach_date": "2008-01-27",
            "close_approach_date_full": "2008-Jan-27 21:20",
            "epoch_date_close_approach": 1201468800000,
            "relative_velocity": {
                "kilometers_per_second": "20.1001472767",
                "kilometers_per_hour": "72360.5301961855",
                "miles_per_hour": "44962.0194432909"
            },
            "miss_distance": {
                "astronomical": "0.4470895153",
                "lunar": "173.9178214517",
                "kilometers": "66883639.188212411",
                "miles": "41559566.2488608318"
            },
            "orbiting_body": "Earth"
        },
        {
            "close_approach_date": "2009-01-22",
            "close_approach_date_full": "2009-Jan-22 00:49",
            "epoch_date_close_approach": 1232585340000,
            "relative_velocity": {
                "kilometers_per_second": "16.3089728495",
                "kilometers_per_hour": "58712.3022581694",
                "miles_per_hour": "36481.5413670275"
            },
            "miss_distance": {
                "astronomical": "0.3263598946",
                "lunar": "126.9539989994",
                "kilometers": "48822745.085584502",
                "miles": "30337047.0486180476"
            },
            "orbiting_body": "Earth"
        },
        {
            "close_approach_date": "2010-01-17",
            "close_approach_date_full": "2010-Jan-17 14:46",
            "epoch_date_close_approach": 1263739560000,
            "relative_velocity": {
                "kilometers_per_second": "12.5154531144",
                "kilometers_per_hour": "45055.631211728",
                "miles_per_hour": "27995.8170715318"
            },
            "miss_distance": {
                "astronomical": "0.2071753017",
                "lunar": "80.5911923613",
                "kilometers": "30992983.850927379",
                "miles": "19258147.1528166702"
            },
            "orbiting_body": "Earth"
        },
        {
            "close_approach_date": "2011-01-14",
            "close_approach_date_full": "2011-Jan-14 10:38",
            "epoch_date_close_approach": 1295001480000,
            "relative_velocity": {
                "kilometers_per_second": "8.8030908469",
                "kilometers_per_hour": "31691.1270488006",
                "miles_per_hour": "19691.6339154061"
            },
            "miss_distance": {
                "astronomical": "0.1018274921",
                "lunar": "39.6108944269",
                "kilometers": "15233175.925601827",
                "miles": "9465456.6011141326"
            },
            "orbiting_body": "Earth"
        },
        {
            "close_approach_date": "2012-01-18",
            "close_approach_date_full": "2012-Jan-18 07:26",
            "epoch_date_close_approach": 1326871560000,
            "relative_velocity": {
                "kilometers_per_second": "5.6886753978",
                "kilometers_per_hour": "20479.231432041",
                "miles_per_hour": "12724.9979973146"
            },
            "miss_distance": {
                "astronomical": "0.0863363776",
                "lunar": "33.5848508864",
                "kilometers": "12915738.192475712",
                "miles": "8025467.5669283456"
            },
            "orbiting_body": "Earth"
        }
    ],
    "orbital_data": {
        "orbit_id": "4",
        "orbit_determination_date": "2017-04-06 08:51:02",
        "first_observation_date": "2012-02-03",
        "last_observation_date": "2012-02-04",
        "data_arc_in_days": 1,
        "observations_used": 17,
        "orbit_uncertainty": "8",
        "minimum_orbit_intersection": ".0735137",
        "jupiter_tisserand_invariant": "6.117",
        "epoch_osculation": "2455960.5",
        "eccentricity": ".2153871294927357",
        "semi_major_axis": ".9871385957815656",
        "inclination": "5.848335492173753",
        "ascending_node_longitude": "337.7257659755853",
        "orbital_period": "358.2330294220263",
        "perihelion_distance": ".7745216472246843",
        "perihelion_argument": "28.9848984294897",
        "aphelion_distance": "1.199755544338447",
        "perihelion_time": "2455856.516551593454",
        "mean_anomaly": "104.4963427486089",
        "mean_motion": "1.004932461366906",
        "equinox": "J2000",
        "orbit_class": {
            "orbit_class_type": "ATE",
            "orbit_class_description": "Near-Earth asteroid orbits similar to that of 2062 Aten",
            "orbit_class_range": "a (semi-major axis) < 1.0 AU; q (perihelion) > 0.983 AU"
        }
    },
    "is_sentry_object": false
}